[{"OBJECT_NAME":"KINEIS-5E","OBJECT_ID":"2024-219C","EPOCH":"2026-03-27T11:42:45.220032","MEAN_MOTION":14.72335915,"ECCENTRICITY":0.0005534,"INCLINATION":97.9358,"RA_OF_ASC_NODE":247.716,"ARG_OF_PERICENTER":117.3564,"MEAN_ANOMALY":242.8208,"EPHEMERIS_TYPE":0,"CLASSIFICATION_TYPE":"U","NORAD_CAT_ID":62083,"ELEMENT_SET_NO":999,"REV_AT_EPOCH":7174,"BSTAR":5.3987e-5,"MEAN_MOTION_DOT":2.93e-6,"MEAN_MOTION_DDOT":0},{"OBJECT_NAME":"KINEIS-5A","OBJECT_ID":"2024-219D","EPOCH":"2026-03-29T03:40:20.999712","MEAN_MOTION":14.72233966,"ECCENTRICITY":0.0004953,"INCLINATION":97.9568,"RA_OF_ASC_NODE":249.488,"ARG_OF_PERICENTER":144.5074,"MEAN_ANOMALY":215.6464,"EPHEMERIS_TYPE":0,"CLASSIFICATION_TYPE":"U","NORAD_CAT_ID":62084,"ELEMENT_SET_NO":999,"REV_AT_EPOCH":7199,"BSTAR":0.00021082,"MEAN_MOTION_DOT":1.282e-5,"MEAN_MOTION_DDOT":0},{"OBJECT_NAME":"KINEIS-5B","OBJECT_ID":"2024-219E","EPOCH":"2026-03-29T04:11:27.254400","MEAN_MOTION":14.7813967,"ECCENTRICITY":0.0002726,"INCLINATION":97.9979,"RA_OF_ASC_NODE":252.5177,"ARG_OF_PERICENTER":141.9046,"MEAN_ANOMALY":218.2358,"EPHEMERIS_TYPE":0,"CLASSIFICATION_TYPE":"U","NORAD_CAT_ID":62085,"ELEMENT_SET_NO":999,"REV_AT_EPOCH":7218,"BSTAR":0.00023947,"MEAN_MOTION_DOT":1.682e-5,"MEAN_MOTION_DDOT":0},{"OBJECT_NAME":"KINEIS-2C","OBJECT_ID":"2025-028B","EPOCH":"2026-03-28T03:27:54.221184","MEAN_MOTION":14.72306821,"ECCENTRICITY":6.19e-5,"INCLINATION":98.0287,"RA_OF_ASC_NODE":142.0783,"ARG_OF_PERICENTER":136.6903,"MEAN_ANOMALY":223.4353,"EPHEMERIS_TYPE":0,"CLASSIFICATION_TYPE":"U","NORAD_CAT_ID":62929,"ELEMENT_SET_NO":999,"REV_AT_EPOCH":6068,"BSTAR":0.0002061,"MEAN_MOTION_DOT":1.253e-5,"MEAN_MOTION_DDOT":0},{"OBJECT_NAME":"KINEIS-2D","OBJECT_ID":"2025-028C","EPOCH":"2026-03-29T04:04:03.471168","MEAN_MOTION":14.75419603,"ECCENTRICITY":0.0004731,"INCLINATION":97.9372,"RA_OF_ASC_NODE":142.1403,"ARG_OF_PERICENTER":101.7327,"MEAN_ANOMALY":258.4413,"EPHEMERIS_TYPE":0,"CLASSIFICATION_TYPE":"U","NORAD_CAT_ID":62930,"ELEMENT_SET_NO":999,"REV_AT_EPOCH":6091,"BSTAR":0.00033126,"MEAN_MOTION_DOT":2.201e-5,"MEAN_MOTION_DDOT":0},{"OBJECT_NAME":"KINEIS-2E","OBJECT_ID":"2025-028D","EPOCH":"2026-03-29T03:27:04.283712","MEAN_MOTION":14.76779556,"ECCENTRICITY":0.0002006,"INCLINATION":97.9041,"RA_OF_ASC_NODE":141.4628,"ARG_OF_PERICENTER":92.9135,"MEAN_ANOMALY":267.2305,"EPHEMERIS_TYPE":0,"CLASSIFICATION_TYPE":"U","NORAD_CAT_ID":62931,"ELEMENT_SET_NO":999,"REV_AT_EPOCH":6096,"BSTAR":0.00024667,"MEAN_MOTION_DOT":1.679e-5,"MEAN_MOTION_DDOT":0},{"OBJECT_NAME":"KINEIS-2A","OBJECT_ID":"2025-028E","EPOCH":"2026-03-29T03:02:55.970016","MEAN_MOTION":14.7215363,"ECCENTRICITY":0.0001506,"INCLINATION":98.093,"RA_OF_ASC_NODE":143.528,"ARG_OF_PERICENTER":139.3441,"MEAN_ANOMALY":220.7879,"EPHEMERIS_TYPE":0,"CLASSIFICATION_TYPE":"U","NORAD_CAT_ID":62932,"ELEMENT_SET_NO":999,"REV_AT_EPOCH":6082,"BSTAR":0.00022991,"MEAN_MOTION_DOT":1.398e-5,"MEAN_MOTION_DDOT":0},{"OBJECT_NAME":"KINEIS-2B","OBJECT_ID":"2025-028G","EPOCH":"2026-03-29T03:13:20.315424","MEAN_MOTION":14.73173263,"ECCENTRICITY":0.0004569,"INCLINATION":97.9754,"RA_OF_ASC_NODE":142.4296,"ARG_OF_PERICENTER":63.9594,"MEAN_ANOMALY":296.2084,"EPHEMERIS_TYPE":0,"CLASSIFICATION_TYPE":"U","NORAD_CAT_ID":62934,"ELEMENT_SET_NO":999,"REV_AT_EPOCH":6087,"BSTAR":0.00023645,"MEAN_MOTION_DOT":1.475e-5,"MEAN_MOTION_DDOT":0},{"OBJECT_NAME":"KINEIS-4E","OBJECT_ID":"2025-056A","EPOCH":"2026-03-27T19:58:39.530208","MEAN_MOTION":14.72273762,"ECCENTRICITY":0.00013559,"INCLINATION":97.9728,"RA_OF_ASC_NODE":212.8182,"ARG_OF_PERICENTER":143.5789,"MEAN_ANOMALY":216.5511,"EPHEMERIS_TYPE":0,"CLASSIFICATION_TYPE":"U","NORAD_CAT_ID":63300,"ELEMENT_SET_NO":999,"REV_AT_EPOCH":5515,"BSTAR":0.00011884956,"MEAN_MOTION_DOT":7.02e-6,"MEAN_MOTION_DDOT":0},{"OBJECT_NAME":"KINEIS-4C","OBJECT_ID":"2025-056B","EPOCH":"2026-03-27T21:54:03.951072","MEAN_MOTION":14.72306595,"ECCENTRICITY":0.0001892,"INCLINATION":97.9794,"RA_OF_ASC_NODE":213.0752,"ARG_OF_PERICENTER":158.4621,"MEAN_ANOMALY":201.6666,"EPHEMERIS_TYPE":0,"CLASSIFICATION_TYPE":"U","NORAD_CAT_ID":63301,"ELEMENT_SET_NO":999,"REV_AT_EPOCH":5517,"BSTAR":-4.1378e-5,"MEAN_MOTION_DOT":-3.1e-6,"MEAN_MOTION_DDOT":0},{"OBJECT_NAME":"KINEIS-4D","OBJECT_ID":"2025-056C","EPOCH":"2026-03-28T02:54:36.386208","MEAN_MOTION":14.7232248,"ECCENTRICITY":0.00018241,"INCLINATION":97.9779,"RA_OF_ASC_NODE":213.2545,"ARG_OF_PERICENTER":176.3612,"MEAN_ANOMALY":183.7609,"EPHEMERIS_TYPE":0,"CLASSIFICATION_TYPE":"U","NORAD_CAT_ID":63302,"ELEMENT_SET_NO":999,"REV_AT_EPOCH":5520,"BSTAR":0.0002952217,"MEAN_MOTION_DOT":1.818e-5,"MEAN_MOTION_DDOT":0},{"OBJECT_NAME":"KINEIS-4A","OBJECT_ID":"2025-056D","EPOCH":"2026-03-27T09:45:24.725088","MEAN_MOTION":14.72349551,"ECCENTRICITY":0.0002702,"INCLINATION":97.9809,"RA_OF_ASC_NODE":212.4867,"ARG_OF_PERICENTER":176.552,"MEAN_ANOMALY":183.5707,"EPHEMERIS_TYPE":0,"CLASSIFICATION_TYPE":"U","NORAD_CAT_ID":63303,"ELEMENT_SET_NO":999,"REV_AT_EPOCH":5509,"BSTAR":-4.7649e-5,"MEAN_MOTION_DOT":-3.5e-6,"MEAN_MOTION_DDOT":0},{"OBJECT_NAME":"KINEIS-4B","OBJECT_ID":"2025-056E","EPOCH":"2026-03-27T07:43:28.329888","MEAN_MOTION":14.72335248,"ECCENTRICITY":0.0004133,"INCLINATION":97.9812,"RA_OF_ASC_NODE":212.4468,"ARG_OF_PERICENTER":147.7098,"MEAN_ANOMALY":212.4363,"EPHEMERIS_TYPE":0,"CLASSIFICATION_TYPE":"U","NORAD_CAT_ID":63304,"ELEMENT_SET_NO":999,"REV_AT_EPOCH":5507,"BSTAR":-5.5872e-5,"MEAN_MOTION_DOT":-4.02e-6,"MEAN_MOTION_DDOT":0}]
