KINEIS-5E               
1 62083U 24219C   26086.48802338  .00000293  00000+0  53987-4 0  9994
2 62083  97.9358 247.7160 0005534 117.3564 242.8208 14.72335915 71748
KINEIS-5A               
1 62084U 24219D   26088.15302083  .00001282  00000+0  21082-3 0  9992
2 62084  97.9568 249.4880 0004953 144.5074 215.6464 14.72233966 71994
KINEIS-5B               
1 62085U 24219E   26088.17462100  .00001682  00000+0  23947-3 0  9998
2 62085  97.9979 252.5177 0002726 141.9046 218.2358 14.78139670 72187
KINEIS-2C               
1 62929U 25028B   26087.14437756  .00001253  00000+0  20610-3 0  9997
2 62929  98.0287 142.0783 0000619 136.6903 223.4353 14.72306821 60689
KINEIS-2D               
1 62930U 25028C   26088.16948462  .00002201  00000+0  33126-3 0  9993
2 62930  97.9372 142.1403 0004731 101.7327 258.4413 14.75419603 60913
KINEIS-2E               
1 62931U 25028D   26088.14379958  .00001679  00000+0  24667-3 0  9998
2 62931  97.9041 141.4628 0002006  92.9135 267.2305 14.76779556 60969
KINEIS-2A               
1 62932U 25028E   26088.12703669  .00001398  00000+0  22991-3 0  9993
2 62932  98.0930 143.5280 0001506 139.3441 220.7879 14.72153630 60826
KINEIS-2B               
1 62934U 25028G   26088.13426291  .00001475  00000+0  23645-3 0  9992
2 62934  97.9754 142.4296 0004569  63.9594 296.2084 14.73173263 60874
KINEIS-4E               
1 63300U 25056A   26086.83240197  .00000702  00000+0  11885-3 0  9990
2 63300  97.9728 212.8182 0001355 143.5789 216.5511 14.72273762 55159
KINEIS-4C               
1 63301U 25056B   26086.91254573 -.00000310  00000+0 -41378-4 0  9991
2 63301  97.9794 213.0752 0001892 158.4621 201.6666 14.72306595 55174
KINEIS-4D               
1 63302U 25056C   26087.12125447  .00001818  00000+0  29522-3 0  9991
2 63302  97.9779 213.2545 0001824 176.3612 183.7609 14.72322480 55206
KINEIS-4A               
1 63303U 25056D   26086.40653617 -.00000350  00000+0 -47649-4 0  9990
2 63303  97.9809 212.4867 0002702 176.5520 183.5707 14.72349551 55097
KINEIS-4B               
1 63304U 25056E   26086.32185567 -.00000402  00000+0 -55872-4 0  9991
2 63304  97.9812 212.4468 0004133 147.7098 212.4363 14.72335248 55075
